[{"OBJECT_NAME":"CHOMPTT","OBJECT_ID":"2018-104G","EPOCH":"2022-08-18T15:47:15.737856","MEAN_MOTION":15.28403633,"ECCENTRICITY":0.0015332,"INCLINATION":85.0375,"RA_OF_ASC_NODE":9.6458,"ARG_OF_PERICENTER":15.2879,"MEAN_ANOMALY":344.8827,"EPHEMERIS_TYPE":0,"CLASSIFICATION_TYPE":"U","NORAD_CAT_ID":43855,"ELEMENT_SET_NO":999,"REV_AT_EPOCH":20422,"BSTAR":0.00033779,"MEAN_MOTION_DOT":9.408e-5,"MEAN_MOTION_DDOT":0},{"OBJECT_NAME":"DAVINCI","OBJECT_ID":"2018-104J","EPOCH":"2022-08-18T16:17:23.084160","MEAN_MOTION":15.4131734,"ECCENTRICITY":0.0009532,"INCLINATION":85.0274,"RA_OF_ASC_NODE":6.8422,"ARG_OF_PERICENTER":29.2003,"MEAN_ANOMALY":330.9781,"EPHEMERIS_TYPE":0,"CLASSIFICATION_TYPE":"U","NORAD_CAT_ID":43857,"ELEMENT_SET_NO":999,"REV_AT_EPOCH":20443,"BSTAR":0.0011274,"MEAN_MOTION_DOT":0.00047267,"MEAN_MOTION_DDOT":0},{"OBJECT_NAME":"UWE-4","OBJECT_ID":"2018-111E","EPOCH":"2022-08-18T12:14:00.745440","MEAN_MOTION":14.98435359,"ECCENTRICITY":0.0013324,"INCLINATION":97.6627,"RA_OF_ASC_NODE":135.7342,"ARG_OF_PERICENTER":107.3364,"MEAN_ANOMALY":252.9317,"EPHEMERIS_TYPE":0,"CLASSIFICATION_TYPE":"U","NORAD_CAT_ID":43880,"ELEMENT_SET_NO":999,"REV_AT_EPOCH":19899,"BSTAR":0.00017676,"MEAN_MOTION_DOT":2.056e-5,"MEAN_MOTION_DDOT":0},{"OBJECT_NAME":"ZACUBE-2","OBJECT_ID":"2018-111AH","EPOCH":"2022-08-19T04:32:20.003424","MEAN_MOTION":15.28570953,"ECCENTRICITY":0.0018343,"INCLINATION":97.1815,"RA_OF_ASC_NODE":115.2675,"ARG_OF_PERICENTER":211.8439,"MEAN_ANOMALY":305.1282,"EPHEMERIS_TYPE":0,"CLASSIFICATION_TYPE":"U","NORAD_CAT_ID":43907,"ELEMENT_SET_NO":999,"REV_AT_EPOCH":20287,"BSTAR":0.00020311,"MEAN_MOTION_DOT":5.6e-5,"MEAN_MOTION_DDOT":0},{"OBJECT_NAME":"MICRODRAGON","OBJECT_ID":"2019-003D","EPOCH":"2022-08-19T04:03:48.257856","MEAN_MOTION":15.26454002,"ECCENTRICITY":0.0015058,"INCLINATION":97.1344,"RA_OF_ASC_NODE":258.472,"ARG_OF_PERICENTER":316.536,"MEAN_ANOMALY":43.4692,"EPHEMERIS_TYPE":0,"CLASSIFICATION_TYPE":"U","NORAD_CAT_ID":43935,"ELEMENT_SET_NO":999,"REV_AT_EPOCH":19926,"BSTAR":0.00025008,"MEAN_MOTION_DOT":6.47e-5,"MEAN_MOTION_DDOT":0},{"OBJECT_NAME":"AOBA VELOX-IV","OBJECT_ID":"2019-003J","EPOCH":"2022-08-18T20:14:46.831776","MEAN_MOTION":15.40353577,"ECCENTRICITY":0.0014205,"INCLINATION":97.1213,"RA_OF_ASC_NODE":264.9577,"ARG_OF_PERICENTER":277.1675,"MEAN_ANOMALY":82.7957,"EPHEMERIS_TYPE":0,"CLASSIFICATION_TYPE":"U","NORAD_CAT_ID":43940,"ELEMENT_SET_NO":999,"REV_AT_EPOCH":19972,"BSTAR":0.00072818,"MEAN_MOTION_DOT":0.00029487,"MEAN_MOTION_DDOT":0},{"OBJECT_NAME":"M6P","OBJECT_ID":"2019-018AF","EPOCH":"2022-08-18T11:09:42.926688","MEAN_MOTION":15.41365069,"ECCENTRICITY":0.0044041,"INCLINATION":97.3936,"RA_OF_ASC_NODE":315.3248,"ARG_OF_PERICENTER":263.1439,"MEAN_ANOMALY":96.4796,"EPHEMERIS_TYPE":0,"CLASSIFICATION_TYPE":"U","NORAD_CAT_ID":44109,"ELEMENT_SET_NO":999,"REV_AT_EPOCH":18900,"BSTAR":0.00046004,"MEAN_MOTION_DOT":0.00019814,"MEAN_MOTION_DDOT":0},{"OBJECT_NAME":"FORMOSAT 7-4","OBJECT_ID":"2019-036M","EPOCH":"2022-08-18T15:08:42.099648","MEAN_MOTION":15.09714877,"ECCENTRICITY":0.0006172,"INCLINATION":24.0006,"RA_OF_ASC_NODE":315.8524,"ARG_OF_PERICENTER":104.0385,"MEAN_ANOMALY":256.0805,"EPHEMERIS_TYPE":0,"CLASSIFICATION_TYPE":"U","NORAD_CAT_ID":44350,"ELEMENT_SET_NO":999,"REV_AT_EPOCH":17287,"BSTAR":0.00020946,"MEAN_MOTION_DOT":3.816e-5,"MEAN_MOTION_DDOT":0},{"OBJECT_NAME":"PAINANI 1","OBJECT_ID":"2019-037A","EPOCH":"2022-08-18T16:35:57.791904","MEAN_MOTION":15.58439652,"ECCENTRICITY":0.0011636,"INCLINATION":44.9975,"RA_OF_ASC_NODE":16.0768,"ARG_OF_PERICENTER":263.2853,"MEAN_ANOMALY":96.6717,"EPHEMERIS_TYPE":0,"CLASSIFICATION_TYPE":"U","NORAD_CAT_ID":44365,"ELEMENT_SET_NO":999,"REV_AT_EPOCH":17693,"BSTAR":0.00063172,"MEAN_MOTION_DOT":0.00049387,"MEAN_MOTION_DDOT":0},{"OBJECT_NAME":"METEOR-M2 2","OBJECT_ID":"2019-038A","EPOCH":"2022-08-19T02:54:54.230400","MEAN_MOTION":14.23716984,"ECCENTRICITY":0.0002453,"INCLINATION":98.7271,"RA_OF_ASC_NODE":191.4126,"ARG_OF_PERICENTER":89.3809,"MEAN_ANOMALY":270.7652,"EPHEMERIS_TYPE":0,"CLASSIFICATION_TYPE":"U","NORAD_CAT_ID":44387,"ELEMENT_SET_NO":999,"REV_AT_EPOCH":16232,"BSTAR":1.2784e-5,"MEAN_MOTION_DOT":-1.5e-7,"MEAN_MOTION_DDOT":0},{"OBJECT_NAME":"VDNH-80","OBJECT_ID":"2019-038G","EPOCH":"2022-08-19T01:37:07.329216","MEAN_MOTION":15.17921874,"ECCENTRICITY":0.001709,"INCLINATION":97.639,"RA_OF_ASC_NODE":201.5304,"ARG_OF_PERICENTER":275.622,"MEAN_ANOMALY":148.646,"EPHEMERIS_TYPE":0,"CLASSIFICATION_TYPE":"U","NORAD_CAT_ID":44392,"ELEMENT_SET_NO":999,"REV_AT_EPOCH":17234,"BSTAR":0.00030364,"MEAN_MOTION_DOT":6.112e-5,"MEAN_MOTION_DDOT":0},{"OBJECT_NAME":"D-STAR ONE (LIGHTSAT)","OBJECT_ID":"2019-038H","EPOCH":"2022-08-18T16:05:11.902560","MEAN_MOTION":15.17986544,"ECCENTRICITY":0.0017262,"INCLINATION":97.6401,"RA_OF_ASC_NODE":201.0247,"ARG_OF_PERICENTER":277.6602,"MEAN_ANOMALY":82.2671,"EPHEMERIS_TYPE":0,"CLASSIFICATION_TYPE":"U","NORAD_CAT_ID":44393,"ELEMENT_SET_NO":999,"REV_AT_EPOCH":17247,"BSTAR":0.00043883,"MEAN_MOTION_DOT":8.886e-5,"MEAN_MOTION_DDOT":0},{"OBJECT_NAME":"AMGU-1 (AMURSAT)","OBJECT_ID":"2019-038J","EPOCH":"2022-08-18T19:04:34.398912","MEAN_MOTION":15.18278745,"ECCENTRICITY":0.0017172,"INCLINATION":97.6383,"RA_OF_ASC_NODE":201.1151,"ARG_OF_PERICENTER":277.6855,"MEAN_ANOMALY":82.2429,"EPHEMERIS_TYPE":0,"CLASSIFICATION_TYPE":"U","NORAD_CAT_ID":44394,"ELEMENT_SET_NO":999,"REV_AT_EPOCH":17249,"BSTAR":0.00034399,"MEAN_MOTION_DOT":7.007e-5,"MEAN_MOTION_DDOT":0},{"OBJECT_NAME":"DOT-1","OBJECT_ID":"2019-038P","EPOCH":"2022-08-18T15:37:45.828768","MEAN_MOTION":15.15633841,"ECCENTRICITY":0.0020836,"INCLINATION":97.6444,"RA_OF_ASC_NODE":199.6495,"ARG_OF_PERICENTER":285.3619,"MEAN_ANOMALY":74.5311,"EPHEMERIS_TYPE":0,"CLASSIFICATION_TYPE":"U","NORAD_CAT_ID":44399,"ELEMENT_SET_NO":999,"REV_AT_EPOCH":17236,"BSTAR":0.00029333,"MEAN_MOTION_DOT":5.536e-5,"MEAN_MOTION_DDOT":0},{"OBJECT_NAME":"SOKRAT","OBJECT_ID":"2019-038U","EPOCH":"2022-08-18T17:32:24.201024","MEAN_MOTION":15.18064999,"ECCENTRICITY":0.0017345,"INCLINATION":97.6391,"RA_OF_ASC_NODE":200.6924,"ARG_OF_PERICENTER":279.5047,"MEAN_ANOMALY":80.4226,"EPHEMERIS_TYPE":0,"CLASSIFICATION_TYPE":"U","NORAD_CAT_ID":44404,"ELEMENT_SET_NO":999,"REV_AT_EPOCH":17246,"BSTAR":0.00047096,"MEAN_MOTION_DOT":9.565e-5,"MEAN_MOTION_DDOT":0},{"OBJECT_NAME":"LUCKY-7","OBJECT_ID":"2019-038W","EPOCH":"2022-08-18T16:55:02.724096","MEAN_MOTION":15.16117927,"ECCENTRICITY":0.0020498,"INCLINATION":97.6433,"RA_OF_ASC_NODE":200.1011,"ARG_OF_PERICENTER":276.2966,"MEAN_ANOMALY":83.5932,"EPHEMERIS_TYPE":0,"CLASSIFICATION_TYPE":"U","NORAD_CAT_ID":44406,"ELEMENT_SET_NO":999,"REV_AT_EPOCH":17239,"BSTAR":0.00028528,"MEAN_MOTION_DOT":5.456e-5,"MEAN_MOTION_DDOT":0},{"OBJECT_NAME":"D-STAR ONE (EXOCONNECT)","OBJECT_ID":"2019-038AA","EPOCH":"2022-08-18T15:30:57.852288","MEAN_MOTION":15.21185925,"ECCENTRICITY":0.0015695,"INCLINATION":97.634,"RA_OF_ASC_NODE":201.7069,"ARG_OF_PERICENTER":272.7228,"MEAN_ANOMALY":87.221,"EPHEMERIS_TYPE":0,"CLASSIFICATION_TYPE":"U","NORAD_CAT_ID":44410,"ELEMENT_SET_NO":999,"REV_AT_EPOCH":17254,"BSTAR":0.00063786,"MEAN_MOTION_DOT":0.0001421,"MEAN_MOTION_DDOT":0}]