CHOMPTT                 
1 43855U 18104G   22230.65782104  .00009408  00000+0  33779-3 0  9993
2 43855  85.0375   9.6458 0015332  15.2879 344.8827 15.28403633204224
DAVINCI                 
1 43857U 18104J   22230.67873940  .00047267  00000+0  11274-2 0  9996
2 43857  85.0274   6.8422 0009532  29.2003 330.9781 15.41317340204435
UWE-4                   
1 43880U 18111E   22230.50973085  .00002056  00000+0  17676-3 0  9993
2 43880  97.6627 135.7342 0013324 107.3364 252.9317 14.98435359198990
ZACUBE-2                
1 43907U 18111AH  22231.18912041  .00005600  00000+0  20311-3 0  9991
2 43907  97.1815 115.2675 0018343 211.8439 305.1282 15.28570953202875
MICRODRAGON             
1 43935U 19003D   22231.16930854  .00006470  00000+0  25008-3 0  9997
2 43935  97.1344 258.4720 0015058 316.5360  43.4692 15.26454002199269
AOBA VELOX-IV           
1 43940U 19003J   22230.84359759  .00029487  00000+0  72818-3 0  9990
2 43940  97.1213 264.9577 0014205 277.1675  82.7957 15.40353577199728
M6P                     
1 44109U 19018AF  22230.46508017  .00019814  00000+0  46004-3 0  9996
2 44109  97.3936 315.3248 0044041 263.1439  96.4796 15.41365069189003
FORMOSAT 7-4            
1 44350U 19036M   22230.63104282  .00003816  00000+0  20946-3 0  9991
2 44350  24.0006 315.8524 0006172 104.0385 256.0805 15.09714877172875
PAINANI 1               
1 44365U 19037A   22230.69164111  .00049387  00000+0  63172-3 0  9992
2 44365  44.9975  16.0768 0011636 263.2853  96.6717 15.58439652176936
METEOR-M2 2             
1 44387U 19038A   22231.12146100 -.00000015  00000+0  12784-4 0  9994
2 44387  98.7271 191.4126 0002453  89.3809 270.7652 14.23716984162325
VDNH-80                 
1 44392U 19038G   22231.06744594  .00006112  00000+0  30364-3 0  9990
2 44392  97.6390 201.5304 0017090 275.6220 148.6460 15.17921874172345
D-STAR ONE (LIGHTSAT)   
1 44393U 19038H   22230.67027665  .00008886  00000+0  43883-3 0  9990
2 44393  97.6401 201.0247 0017262 277.6602  82.2671 15.17986544172473
AMGU-1 (AMURSAT)        
1 44394U 19038J   22230.79484258  .00007007  00000+0  34399-3 0  9995
2 44394  97.6383 201.1151 0017172 277.6855  82.2429 15.18278745172499
DOT-1                   
1 44399U 19038P   22230.65122487  .00005536  00000+0  29333-3 0  9995
2 44399  97.6444 199.6495 0020836 285.3619  74.5311 15.15633841172368
SOKRAT                  
1 44404U 19038U   22230.73083566  .00009565  00000+0  47096-3 0  9997
2 44404  97.6391 200.6924 0017345 279.5047  80.4226 15.18064999172464
LUCKY-7                 
1 44406U 19038W   22230.70489264  .00005456  00000+0  28528-3 0  9995
2 44406  97.6433 200.1011 0020498 276.2966  83.5932 15.16117927172390
D-STAR ONE (EXOCONNECT) 
1 44410U 19038AA  22230.64650292  .00014210  00000+0  63786-3 0  9997
2 44410  97.6340 201.7069 0015695 272.7228  87.2210 15.21185925172543
